NOAA 2 (ITOS-D)         
1 06235U 72082A   24316.27903716  .00000001  00000+0  29884-3 0  9990
2 06235 102.0227 316.9833 0003920 199.3114 172.0987 12.53190238381939
NOAA 20 (JPSS-1)        
1 43013U 17073A   24317.14736662  .00000406  00000+0  21306-3 0  9995
2 43013  98.7199 252.6526 0002077 115.6422 244.4969 14.19566132361894
NOAA 21 (JPSS-2)        
1 54234U 22150A   24316.62099442  .00000534  00000+0  27430-3 0  9990
2 54234  98.7050 252.7714 0002453  83.4188 276.7267 14.19490733103892
